ASNARO-2                
1 43152U 18007A   26067.75441303  .00013989  00000+0  60725-3 0  9991
2 43152  97.4030  76.2222 0002085  88.5161 271.6314 15.22434719452132
HORUS 2                 
1 55844U 23032A   26068.93924645  .00008276  00000+0  34848-3 0  9992
2 55844  97.3597 146.3013 0003455 105.0024 255.1596 15.23604467166379
